[
    {
        "Altitude(m)": 604983.0528711489,
        "Argument of Periapsis(deg)": 0.0,
        "Eccentricity": 0.0,
        "Inclination(deg)": 60.0,
        "Latitude(deg)": -0.09256601914922165,
        "Longitude(deg)": 50.083916504580344,
        "Mean Anomaly(deg)": -179.99999999999994,
        "RAAN(deg)": 330.0,
        "Satellite Name": "Test1 1463",
        "Satellite Number": 1463,
        "Semi-Major Axis(m)": 6980739.136638005,
        "Time(s)": 0
    },
    {
        "Altitude(m)": 605055.331756721,
        "Argument of Periapsis(deg)": 0.00010418945913296404,
        "Eccentricity": 0.0,
        "Inclination(deg)": 60.0,
        "Latitude(deg)": -0.6329755905691689,
        "Longitude(deg)": 50.35204201652388,
        "Mean Anomaly(deg)": -179.37989385453818,
        "RAAN(deg)": 329.9995799508602,
        "Satellite Name": "Test1 1463",
        "Satellite Number": 1463,
        "Semi-Major Axis(m)": 6980739.136638005,
        "Time(s)": 10
    }
]